EUTELSAT 21B            
1 38992U 12062B   25239.88239089  .00000130  00000+0  00000+0 0  9992
2 38992   0.0697   1.7868 0002532 157.4670 156.3443  1.00270898 46884
EUTELSAT 70B            
1 39020U 12069A   25239.83098097 -.00000044  00000+0  00000+0 0  9994
2 39020   0.0656   3.0386 0003579 156.1697 186.7369  1.00271738 46562
EUTELSAT 117 WEST A     
1 39122U 13012A   25239.73239117 -.00000014  00000+0  00000+0 0  9992
2 39122   0.0541 291.8127 0002908 231.3152 319.9413  1.00271641 45499
EUTELSAT 7B             
1 39163U 13022A   25239.89905935  .00000048  00000+0  00000+0 0  9999
2 39163   0.0714 333.6013 0001681  81.0490 252.3805  1.00270635 45012
EXPRESS-AT1             
1 39612U 14010A   25239.75376880  .00000078  00000+0  00000+0 0  9995
2 39612   0.0349 280.6317 0000739 161.6093 221.3508  1.00271424 41873
EXPRESS-AT2             
1 39613U 14010B   25239.77040887 -.00000282  00000+0  00000+0 0  9991
2 39613   0.0280 259.8763 0000218 152.0747 341.4893  1.00272296 41557
EUTELSAT 3B             
1 39773U 14030A   25239.89905935  .00000020  00000+0  00000+0 0  9996
2 39773   0.0651   1.2035 0004207 154.9440 146.9639  1.00272294 41127
EUTELSAT 115 WEST B     
1 40425U 15010B   25239.64847214 -.00000026  00000+0  00000+0 0  9996
2 40425   0.0028 197.0594 0000150 181.6200  75.9840  1.00270697 38451
